[{"OBJECT_NAME":"OBJECT F","OBJECT_ID":"2023-072F","EPOCH":"2026-03-09T23:31:37.259904","MEAN_MOTION":15.29470958,"ECCENTRICITY":0.00062878,"INCLINATION":97.5173,"RA_OF_ASC_NODE":265.798,"ARG_OF_PERICENTER":19.0017,"MEAN_ANOMALY":341.1456,"EPHEMERIS_TYPE":0,"CLASSIFICATION_TYPE":"U","NORAD_CAT_ID":56748,"ELEMENT_SET_NO":999,"REV_AT_EPOCH":15460,"BSTAR":0.00043416252,"MEAN_MOTION_DOT":0.00012341,"MEAN_MOTION_DDOT":0},{"OBJECT_NAME":"STARLINK-35584","OBJECT_ID":"2025-236W","EPOCH":"2026-03-09T19:36:07.409952","MEAN_MOTION":15.30212537,"ECCENTRICITY":0.00017806,"INCLINATION":53.1596,"RA_OF_ASC_NODE":103.3082,"ARG_OF_PERICENTER":85.4186,"MEAN_ANOMALY":274.7018,"EPHEMERIS_TYPE":0,"CLASSIFICATION_TYPE":"U","NORAD_CAT_ID":66106,"ELEMENT_SET_NO":999,"REV_AT_EPOCH":2296,"BSTAR":0.00066765065,"MEAN_MOTION_DOT":0.00019474,"MEAN_MOTION_DDOT":0}]
